{
  "type": "FeatureCollection",
  "features": [
    {
      "type": "Feature",
      "properties": {
        "norad_id": 33376,
        "name": "GALAXY 19 (G-19)",
        "group": "intelsat",
        "lat": 0.02717852804976798,
        "lon": 81.3113647101519,
        "alt_km": 35796.7054926832,
        "timestamp": "2025-12-22T05:49:03.150277+00:00",
        "meta_object_name": "GALAXY 19 (G-19)",
        "meta_object_id": "2008-045A",
        "meta_epoch": "2025-12-21T19:34:49.509120",
        "meta_mean_motion": 1.0027126,
        "meta_eccentricity": 0.0002568,
        "meta_inclination": 0.049,
        "meta_ra_of_asc_node": 266.6533,
        "meta_arg_of_pericenter": 10.6348,
        "meta_mean_anomaly": 10.0463,
        "meta_ephemeris_type": 0,
        "meta_classification_type": "U",
        "meta_norad_cat_id": 33376,
        "meta_element_set_no": 999,
        "meta_rev_at_epoch": 6312,
        "meta_bstar": 0,
        "meta_mean_motion_dot": -1.17e-06,
        "meta_mean_motion_ddot": 0,
        "tle_line1": "1 33376U 08045A   25355.81585080 -.00000117  00000+0  00000+0 0  9992",
        "tle_line2": "2 33376   0.0490 266.6533 0002568  10.6348  10.0463  1.00271260 63126"
      },
      "geometry": {
        "type": "Point",
        "coordinates": [
          81.3113647101519,
          0.02717852804976798
        ]
      }
    },
    {
      "type": "Feature",
      "properties": {
        "norad_id": 35493,
        "name": "FM-5",
        "group": "intelsat",
        "lat": 0.02334318665322348,
        "lon": 92.15514147178823,
        "alt_km": 35784.325756961756,
        "timestamp": "2025-12-22T05:49:03.150289+00:00",
        "meta_object_name": "FM-5",
        "meta_object_id": "2009-034A",
        "meta_epoch": "2025-12-21T14:30:02.765952",
        "meta_mean_motion": 1.0027065,
        "meta_eccentricity": 0.0001295,
        "meta_inclination": 0.026,
        "meta_ra_of_asc_node": 287.2191,
        "meta_arg_of_pericenter": 232.2596,
        "meta_mean_anomaly": 62.3197,
        "meta_ephemeris_type": 0,
        "meta_classification_type": "U",
        "meta_norad_cat_id": 35493,
        "meta_element_set_no": 999,
        "meta_rev_at_epoch": 4486,
        "meta_bstar": 0,
        "meta_mean_motion_dot": -1.78e-06,
        "meta_mean_motion_ddot": 0,
        "tle_line1": "1 35493U 09034A   25355.60419868 -.00000178  00000+0  00000+0 0  9997",
        "tle_line2": "2 35493   0.0260 287.2191 0001295 232.2596  62.3197  1.00270650 44861"
      },
      "geometry": {
        "type": "Point",
        "coordinates": [
          92.15514147178823,
          0.02334318665322348
        ]
      }
    },
    {
      "type": "Feature",
      "properties": {
        "norad_id": 36097,
        "name": "INTELSAT 14 (IS-14)",
        "group": "intelsat",
        "lat": 0.030727268005419417,
        "lon": 133.29367499540942,
        "alt_km": 35795.57499454377,
        "timestamp": "2025-12-22T05:49:03.150302+00:00",
        "meta_object_name": "INTELSAT 14 (IS-14)",
        "meta_object_id": "2009-064A",
        "meta_epoch": "2025-12-21T18:07:12.896832",
        "meta_mean_motion": 1.00270353,
        "meta_eccentricity": 0.0002484,
        "meta_inclination": 0.0098,
        "meta_ra_of_asc_node": 20.2079,
        "meta_arg_of_pericenter": 262.4173,
        "meta_mean_anomaly": 34.7535,
        "meta_ephemeris_type": 0,
        "meta_classification_type": "U",
        "meta_norad_cat_id": 36097,
        "meta_element_set_no": 999,
        "meta_rev_at_epoch": 5882,
        "meta_bstar": 0,
        "meta_mean_motion_dot": -2.51e-06,
        "meta_mean_motion_ddot": 0,
        "tle_line1": "1 36097U 09064A   25355.75501038 -.00000251  00000+0  00000+0 0  9990",
        "tle_line2": "2 36097   0.0098  20.2079 0002484 262.4173  34.7535  1.00270353 58828"
      },
      "geometry": {
        "type": "Point",
        "coordinates": [
          133.29367499540942,
          0.030727268005419417
        ]
      }
    },
    {
      "type": "Feature",
      "properties": {
        "norad_id": 36106,
        "name": "INTELSAT 15 (IS-15)",
        "group": "intelsat",
        "lat": -0.04459813382874652,
        "lon": -96.54000536436232,
        "alt_km": 35777.41479603767,
        "timestamp": "2025-12-22T05:49:03.150313+00:00",
        "meta_object_name": "INTELSAT 15 (IS-15)",
        "meta_object_id": "2009-067A",
        "meta_epoch": "2025-12-21T18:17:56.390208",
        "meta_mean_motion": 1.00271632,
        "meta_eccentricity": 0.0002176,
        "meta_inclination": 0.0189,
        "meta_ra_of_asc_node": 356.6293,
        "meta_arg_of_pericenter": 285.3864,
        "meta_mean_anomaly": 168.209,
        "meta_ephemeris_type": 0,
        "meta_classification_type": "U",
        "meta_norad_cat_id": 36106,
        "meta_element_set_no": 999,
        "meta_rev_at_epoch": 3945,
        "meta_bstar": 0,
        "meta_mean_motion_dot": -1.63e-06,
        "meta_mean_motion_ddot": 0,
        "tle_line1": "1 36106U 09067A   25355.76245822 -.00000163  00000+0  00000+0 0  9993",
        "tle_line2": "2 36106   0.0189 356.6293 0002176 285.3864 168.2090  1.00271632 39451"
      },
      "geometry": {
        "type": "Point",
        "coordinates": [
          -96.54000536436232,
          -0.04459813382874652
        ]
      }
    },
    {
      "type": "Feature",
      "properties": {
        "norad_id": 36131,
        "name": "DIRECTV 12",
        "group": "intelsat",
        "lat": 0.010237603901561889,
        "lon": 75.59654081226104,
        "alt_km": 35786.0934257075,
        "timestamp": "2025-12-22T05:49:03.150326+00:00",
        "meta_object_name": "DIRECTV 12",
        "meta_object_id": "2009-075A",
        "meta_epoch": "2025-12-21T16:08:00.885408",
        "meta_mean_motion": 1.00271225,
        "meta_eccentricity": 3.4e-05,
        "meta_inclination": 0.0128,
        "meta_ra_of_asc_node": 91.6279,
        "meta_arg_of_pericenter": 260.165,
        "meta_mean_anomaly": 237.987,
        "meta_ephemeris_type": 0,
        "meta_classification_type": "U",
        "meta_norad_cat_id": 36131,
        "meta_element_set_no": 999,
        "meta_rev_at_epoch": 4477,
        "meta_bstar": 0,
        "meta_mean_motion_dot": -8.1e-07,
        "meta_mean_motion_ddot": 0,
        "tle_line1": "1 36131U 09075A   25355.67223247 -.00000081  00000+0  00000+0 0  9996",
        "tle_line2": "2 36131   0.0128  91.6279 0000340 260.1650 237.9870  1.00271225 44776"
      },
      "geometry": {
        "type": "Point",
        "coordinates": [
          75.59654081226104,
          0.010237603901561889
        ]
      }
    },
    {
      "type": "Feature",
      "properties": {
        "norad_id": 36397,
        "name": "INTELSAT 16 (IS-16)",
        "group": "intelsat",
        "lat": 0.0265153808151767,
        "lon": 102.11303201905574,
        "alt_km": 35793.80274737813,
        "timestamp": "2025-12-22T05:49:03.150337+00:00",
        "meta_object_name": "INTELSAT 16 (IS-16)",
        "meta_object_id": "2010-006A",
        "meta_epoch": "2025-12-21T17:58:05.343744",
        "meta_mean_motion": 1.00271988,
        "meta_eccentricity": 0.0001849,
        "meta_inclination": 0.0168,
        "meta_ra_of_asc_node": 314.1038,
        "meta_arg_of_pericenter": 318.7703,
        "meta_mean_anomaly": 11.0222,
        "meta_ephemeris_type": 0,
        "meta_classification_type": "U",
        "meta_norad_cat_id": 36397,
        "meta_element_set_no": 999,
        "meta_rev_at_epoch": 5787,
        "meta_bstar": 0,
        "meta_mean_motion_dot": -2.22e-06,
        "meta_mean_motion_ddot": 0,
        "tle_line1": "1 36397U 10006A   25355.74867296 -.00000222  00000+0  00000+0 0  9999",
        "tle_line2": "2 36397   0.0168 314.1038 0001849 318.7703  11.0222  1.00271988 57877"
      },
      "geometry": {
        "type": "Point",
        "coordinates": [
          102.11303201905574,
          0.0265153808151767
        ]
      }
    },
    {
      "type": "Feature",
      "properties": {
        "norad_id": 37185,
        "name": "XM-5",
        "group": "intelsat",
        "lat": 0.049837563491451714,
        "lon": 63.08537508201792,
        "alt_km": 35786.33066111681,
        "timestamp": "2025-12-22T05:49:03.150349+00:00",
        "meta_object_name": "XM-5",
        "meta_object_id": "2010-053A",
        "meta_epoch": "2025-12-21T16:04:23.731104",
        "meta_mean_motion": 1.00268771,
        "meta_eccentricity": 0.0002387,
        "meta_inclination": 0.068,
        "meta_ra_of_asc_node": 270.7208,
        "meta_arg_of_pericenter": 239.3618,
        "meta_mean_anomaly": 66.315,
        "meta_ephemeris_type": 0,
        "meta_classification_type": "U",
        "meta_norad_cat_id": 37185,
        "meta_element_set_no": 999,
        "meta_rev_at_epoch": 5570,
        "meta_bstar": 0,
        "meta_mean_motion_dot": 0,
        "meta_mean_motion_ddot": 0,
        "tle_line1": "1 37185U 10053A   25355.66971911  .00000000  00000+0  00000+0 0  9991",
        "tle_line2": "2 37185   0.0680 270.7208 0002387 239.3618  66.3150  1.00268771 55708"
      },
      "geometry": {
        "type": "Point",
        "coordinates": [
          63.08537508201792,
          0.049837563491451714
        ]
      }
    }
  ]
}